[{"OBJECT_NAME":"SJ-11-05","OBJECT_ID":"2013-035A","EPOCH":"2026-03-09T22:35:58.811424","MEAN_MOTION":14.64778924,"ECCENTRICITY":0.0009824,"INCLINATION":98.2837,"RA_OF_ASC_NODE":253.0653,"ARG_OF_PERICENTER":179.2606,"MEAN_ANOMALY":180.8612,"EPHEMERIS_TYPE":0,"CLASSIFICATION_TYPE":"U","NORAD_CAT_ID":39202,"ELEMENT_SET_NO":999,"REV_AT_EPOCH":67470,"BSTAR":0.00019288768,"MEAN_MOTION_DOT":9.8e-6,"MEAN_MOTION_DDOT":0},{"OBJECT_NAME":"RANDEV","OBJECT_ID":"2022-065E","EPOCH":"2026-03-09T22:32:03.893280","MEAN_MOTION":14.63497049,"ECCENTRICITY":0.00074498,"INCLINATION":98.2039,"RA_OF_ASC_NODE":213.5498,"ARG_OF_PERICENTER":344.9996,"MEAN_ANOMALY":15.0984,"EPHEMERIS_TYPE":0,"CLASSIFICATION_TYPE":"U","NORAD_CAT_ID":52898,"ELEMENT_SET_NO":999,"REV_AT_EPOCH":19673,"BSTAR":0.00033412405,"MEAN_MOTION_DOT":1.684e-5,"MEAN_MOTION_DDOT":0}]
